[{"OBJECT_NAME":"STARLINK-35044","OBJECT_ID":"2025-200S","EPOCH":"2026-03-09T17:02:41.337888","MEAN_MOTION":15.05646584,"ECCENTRICITY":0.00010278,"INCLINATION":97.6024,"RA_OF_ASC_NODE":139.8141,"ARG_OF_PERICENTER":95.1617,"MEAN_ANOMALY":264.9727,"EPHEMERIS_TYPE":0,"CLASSIFICATION_TYPE":"U","NORAD_CAT_ID":65536,"ELEMENT_SET_NO":999,"REV_AT_EPOCH":2913,"BSTAR":0.00015199344,"MEAN_MOTION_DOT":2.133e-5,"MEAN_MOTION_DDOT":0},{"OBJECT_NAME":"COSMOS 2251 DEB","OBJECT_ID":"1993-036GR","EPOCH":"2026-03-09T03:51:30.155616","MEAN_MOTION":15.03624382,"ECCENTRICITY":0.001162,"INCLINATION":74.0519,"RA_OF_ASC_NODE":328.1155,"ARG_OF_PERICENTER":228.8449,"MEAN_ANOMALY":281.5146,"EPHEMERIS_TYPE":0,"CLASSIFICATION_TYPE":"U","NORAD_CAT_ID":34006,"ELEMENT_SET_NO":999,"REV_AT_EPOCH":89963,"BSTAR":0.0037151817,"MEAN_MOTION_DOT":0.00051242,"MEAN_MOTION_DDOT":0}]
